[{"OBJECT_NAME":"TRANSPORTER-15 OBJECT D","OBJECT_ID":"2025-276D","EPOCH":"2026-03-09T22:32:09.904128","MEAN_MOTION":15.22139186,"ECCENTRICITY":0.00067442,"INCLINATION":97.4144,"RA_OF_ASC_NODE":144.1989,"ARG_OF_PERICENTER":10.0477,"MEAN_ANOMALY":350.0893,"EPHEMERIS_TYPE":0,"CLASSIFICATION_TYPE":"U","NORAD_CAT_ID":66669,"ELEMENT_SET_NO":999,"REV_AT_EPOCH":1536,"BSTAR":0.0013516428,"MEAN_MOTION_DOT":0.00031039,"MEAN_MOTION_DDOT":0},{"OBJECT_NAME":"CZ-4 DEB","OBJECT_ID":"2006-046H","EPOCH":"2026-03-09T02:48:41.934528","MEAN_MOTION":15.12857559,"ECCENTRICITY":0.00451328,"INCLINATION":97.5575,"RA_OF_ASC_NODE":118.4736,"ARG_OF_PERICENTER":295.6188,"MEAN_ANOMALY":89.8626,"EPHEMERIS_TYPE":0,"CLASSIFICATION_TYPE":"U","NORAD_CAT_ID":35375,"ELEMENT_SET_NO":999,"REV_AT_EPOCH":5626,"BSTAR":0.00023308037,"MEAN_MOTION_DOT":4.131e-5,"MEAN_MOTION_DDOT":0}]
